<?xml version="1.0" encoding="UTF-8"?>
<ndm xmlns:xsi="http://www.w3.org/2001/XMLSchema-instance" xsi:noNamespaceSchemaLocation="https://sanaregistry.org/r/ndmxml_unqualified/ndmxml-2.0.0-master-2.0.xsd">
<omm id="CCSDS_OMM_VERS" version="2.0">
<header><CREATION_DATE/><ORIGINATOR/></header><body><segment><metadata><OBJECT_NAME>IRIDIUM 36</OBJECT_NAME><OBJECT_ID>1997-056C</OBJECT_ID><CENTER_NAME>EARTH</CENTER_NAME><REF_FRAME>TEME</REF_FRAME><TIME_SYSTEM>UTC</TIME_SYSTEM><MEAN_ELEMENT_THEORY>SGP4</MEAN_ELEMENT_THEORY></metadata><data><meanElements><EPOCH>2024-09-05T14:59:16.234080</EPOCH><MEAN_MOTION>14.37005687</MEAN_MOTION><ECCENTRICITY>.0002122</ECCENTRICITY><INCLINATION>86.3934</INCLINATION><RA_OF_ASC_NODE>292.5219</RA_OF_ASC_NODE><ARG_OF_PERICENTER>96.6265</ARG_OF_PERICENTER><MEAN_ANOMALY>263.5174</MEAN_ANOMALY></meanElements><tleParameters><EPHEMERIS_TYPE>0</EPHEMERIS_TYPE><CLASSIFICATION_TYPE>U</CLASSIFICATION_TYPE><NORAD_CAT_ID>24967</NORAD_CAT_ID><ELEMENT_SET_NO>999</ELEMENT_SET_NO><REV_AT_EPOCH>41134</REV_AT_EPOCH><BSTAR>.42733E-3</BSTAR><MEAN_MOTION_DOT>.1285E-4</MEAN_MOTION_DOT><MEAN_MOTION_DDOT>0</MEAN_MOTION_DDOT></tleParameters></data></segment></body></omm>
<omm id="CCSDS_OMM_VERS" version="2.0">
<header><CREATION_DATE/><ORIGINATOR/></header><body><segment><metadata><OBJECT_NAME>IRIDIUM 39</OBJECT_NAME><OBJECT_ID>1997-069D</OBJECT_ID><CENTER_NAME>EARTH</CENTER_NAME><REF_FRAME>TEME</REF_FRAME><TIME_SYSTEM>UTC</TIME_SYSTEM><MEAN_ELEMENT_THEORY>SGP4</MEAN_ELEMENT_THEORY></metadata><data><meanElements><EPOCH>2024-09-05T07:15:34.494048</EPOCH><MEAN_MOTION>14.48283117</MEAN_MOTION><ECCENTRICITY>.001861</ECCENTRICITY><INCLINATION>86.3964</INCLINATION><RA_OF_ASC_NODE>333.2705</RA_OF_ASC_NODE><ARG_OF_PERICENTER>171.1564</ARG_OF_PERICENTER><MEAN_ANOMALY>188.9971</MEAN_ANOMALY></meanElements><tleParameters><EPHEMERIS_TYPE>0</EPHEMERIS_TYPE><CLASSIFICATION_TYPE>U</CLASSIFICATION_TYPE><NORAD_CAT_ID>25042</NORAD_CAT_ID><ELEMENT_SET_NO>999</ELEMENT_SET_NO><REV_AT_EPOCH>40771</REV_AT_EPOCH><BSTAR>.83628E-3</BSTAR><MEAN_MOTION_DOT>.3149E-4</MEAN_MOTION_DOT><MEAN_MOTION_DDOT>0</MEAN_MOTION_DDOT></tleParameters></data></segment></body></omm>
<omm id="CCSDS_OMM_VERS" version="2.0">
<header><CREATION_DATE/><ORIGINATOR/></header><body><segment><metadata><OBJECT_NAME>IRIDIUM 38</OBJECT_NAME><OBJECT_ID>1997-069E</OBJECT_ID><CENTER_NAME>EARTH</CENTER_NAME><REF_FRAME>TEME</REF_FRAME><TIME_SYSTEM>UTC</TIME_SYSTEM><MEAN_ELEMENT_THEORY>SGP4</MEAN_ELEMENT_THEORY></metadata><data><meanElements><EPOCH>2024-09-05T19:34:14.324448</EPOCH><MEAN_MOTION>14.37485377</MEAN_MOTION><ECCENTRICITY>.0001325</ECCENTRICITY><INCLINATION>86.4021</INCLINATION><RA_OF_ASC_NODE>352.7899</RA_OF_ASC_NODE><ARG_OF_PERICENTER>32.3358</ARG_OF_PERICENTER><MEAN_ANOMALY>327.7920</MEAN_ANOMALY></meanElements><tleParameters><EPHEMERIS_TYPE>0</EPHEMERIS_TYPE><CLASSIFICATION_TYPE>U</CLASSIFICATION_TYPE><NORAD_CAT_ID>25043</NORAD_CAT_ID><ELEMENT_SET_NO>999</ELEMENT_SET_NO><REV_AT_EPOCH>40535</REV_AT_EPOCH><BSTAR>.63779E-3</BSTAR><MEAN_MOTION_DOT>.1927E-4</MEAN_MOTION_DOT><MEAN_MOTION_DDOT>0</MEAN_MOTION_DDOT></tleParameters></data></segment></body></omm>
<omm id="CCSDS_OMM_VERS" version="2.0">
<header><CREATION_DATE/><ORIGINATOR/></header><body><segment><metadata><OBJECT_NAME>IRIDIUM 42</OBJECT_NAME><OBJECT_ID>1997-077A</OBJECT_ID><CENTER_NAME>EARTH</CENTER_NAME><REF_FRAME>TEME</REF_FRAME><TIME_SYSTEM>UTC</TIME_SYSTEM><MEAN_ELEMENT_THEORY>SGP4</MEAN_ELEMENT_THEORY></metadata><data><meanElements><EPOCH>2024-09-05T06:24:56.536128</EPOCH><MEAN_MOTION>14.35763451</MEAN_MOTION><ECCENTRICITY>.0001833</ECCENTRICITY><INCLINATION>86.4025</INCLINATION><RA_OF_ASC_NODE>358.8330</RA_OF_ASC_NODE><ARG_OF_PERICENTER>74.8019</ARG_OF_PERICENTER><MEAN_ANOMALY>285.3380</MEAN_ANOMALY></meanElements><tleParameters><EPHEMERIS_TYPE>0</EPHEMERIS_TYPE><CLASSIFICATION_TYPE>U</CLASSIFICATION_TYPE><NORAD_CAT_ID>25077</NORAD_CAT_ID><ELEMENT_SET_NO>999</ELEMENT_SET_NO><REV_AT_EPOCH>40030</REV_AT_EPOCH><BSTAR>.64412E-3</BSTAR><MEAN_MOTION_DOT>.1881E-4</MEAN_MOTION_DOT><MEAN_MOTION_DDOT>0</MEAN_MOTION_DDOT></tleParameters></data></segment></body></omm>
<omm id="CCSDS_OMM_VERS" version="2.0">
<header><CREATION_DATE/><ORIGINATOR/></header><body><segment><metadata><OBJECT_NAME>IRIDIUM 44</OBJECT_NAME><OBJECT_ID>1997-077B</OBJECT_ID><CENTER_NAME>EARTH</CENTER_NAME><REF_FRAME>TEME</REF_FRAME><TIME_SYSTEM>UTC</TIME_SYSTEM><MEAN_ELEMENT_THEORY>SGP4</MEAN_ELEMENT_THEORY></metadata><data><meanElements><EPOCH>2024-09-05T18:41:10.536288</EPOCH><MEAN_MOTION>14.39611655</MEAN_MOTION><ECCENTRICITY>.0001087</ECCENTRICITY><INCLINATION>86.4011</INCLINATION><RA_OF_ASC_NODE>341.3181</RA_OF_ASC_NODE><ARG_OF_PERICENTER>152.7455</ARG_OF_PERICENTER><MEAN_ANOMALY>207.3801</MEAN_ANOMALY></meanElements><tleParameters><EPHEMERIS_TYPE>0</EPHEMERIS_TYPE><CLASSIFICATION_TYPE>U</CLASSIFICATION_TYPE><NORAD_CAT_ID>25078</NORAD_CAT_ID><ELEMENT_SET_NO>999</ELEMENT_SET_NO><REV_AT_EPOCH>40280</REV_AT_EPOCH><BSTAR>.54509E-3</BSTAR><MEAN_MOTION_DOT>.1722E-4</MEAN_MOTION_DOT><MEAN_MOTION_DDOT>0</MEAN_MOTION_DDOT></tleParameters></data></segment></body></omm>
<omm id="CCSDS_OMM_VERS" version="2.0">
<header><CREATION_DATE/><ORIGINATOR/></header><body><segment><metadata><OBJECT_NAME>IRIDIUM 24</OBJECT_NAME><OBJECT_ID>1997-082B</OBJECT_ID><CENTER_NAME>EARTH</CENTER_NAME><REF_FRAME>TEME</REF_FRAME><TIME_SYSTEM>UTC</TIME_SYSTEM><MEAN_ELEMENT_THEORY>SGP4</MEAN_ELEMENT_THEORY></metadata><data><meanElements><EPOCH>2024-09-05T06:44:28.569408</EPOCH><MEAN_MOTION>14.41414835</MEAN_MOTION><ECCENTRICITY>.0009473</ECCENTRICITY><INCLINATION>86.3958</INCLINATION><RA_OF_ASC_NODE>200.9743</RA_OF_ASC_NODE><ARG_OF_PERICENTER>307.1899</ARG_OF_PERICENTER><MEAN_ANOMALY>52.8435</MEAN_ANOMALY></meanElements><tleParameters><EPHEMERIS_TYPE>0</EPHEMERIS_TYPE><CLASSIFICATION_TYPE>U</CLASSIFICATION_TYPE><NORAD_CAT_ID>25105</NORAD_CAT_ID><ELEMENT_SET_NO>999</ELEMENT_SET_NO><REV_AT_EPOCH>40216</REV_AT_EPOCH><BSTAR>.70509E-3</BSTAR><MEAN_MOTION_DOT>.2305E-4</MEAN_MOTION_DOT><MEAN_MOTION_DDOT>0</MEAN_MOTION_DDOT></tleParameters></data></segment></body></omm>

</ndm>
