IRIDIUM 36              
1 24967U 97056C   24249.62449345  .00001285  00000+0  42733-3 0  9990
2 24967  86.3934 292.5219 0002122  96.6265 263.5174 14.37005687411346
IRIDIUM 39              
1 25042U 97069D   24249.30248257  .00003149  00000+0  83628-3 0  9992
2 25042  86.3964 333.2705 0018610 171.1564 188.9971 14.48283117407716
IRIDIUM 38              
1 25043U 97069E   24249.81544357  .00001927  00000+0  63779-3 0  9996
2 25043  86.4021 352.7899 0001325  32.3358 327.7920 14.37485377405351
IRIDIUM 42              
1 25077U 97077A   24249.26732102  .00001881  00000+0  64412-3 0  9992
2 25077  86.4025 358.8330 0001833  74.8019 285.3380 14.35763451400307
IRIDIUM 44              
1 25078U 97077B   24249.77859417  .00001722  00000+0  54509-3 0  9998
2 25078  86.4011 341.3181 0001087 152.7455 207.3801 14.39611655402806
IRIDIUM 24              
1 25105U 97082B   24249.28088622  .00002305  00000+0  70509-3 0  9999
2 25105  86.3958 200.9743 0009473 307.1899  52.8435 14.41414835402164
